{"type":"FeatureCollection","features":[{"type":"Feature","id":"way/836480414","properties":{"name":"东岙沙滩","natural":"beach","id":"way/836480414"},"geometry":{"type":"MultiPolygon","coordinates":[[[[121.1562663,27.824499],[121.1576038,27.823672],[121.1578355,27.8236504],[121.157681,27.8242041],[121.1572094,27.8245421],[121.1568618,27.8246951],[121.1565671,27.824765],[121.1563801,27.8246715],[121.1562663,27.824499]]]]}},{"type":"Feature","id":"way/836480449","properties":{"landuse":"residential","id":"way/836480449"},"geometry":{"type":"MultiPolygon","coordinates":[[[[121.1541649762689,27.82539311890328],[121.1542815,27.8255913],[121.1541649762689,27.82573890117522],[121.1541649762689,27.82539311890328]]]]}},{"type":"Feature","id":"way/836480453","properties":{"landuse":"residential","id":"way/836480453"},"geometry":{"type":"MultiPolygon","coordinates":[[[[121.15432,27.8264287],[121.1549084,27.8253054],[121.1547309,27.8245207],[121.155805,27.824752],[121.1555435,27.8241077],[121.1558237,27.8240003],[121.1561226,27.8245372],[121.1562067,27.825198],[121.1578412,27.8242481],[121.1581774,27.823579],[121.1589526,27.8226621],[121.1598026,27.8226043],[121.1602550237311,27.822837398680555],[121.1602550237311,27.82691239153259],[121.15982129139806,27.82691239153259],[121.1598119,27.8268996],[121.1592982,27.8262801],[121.1574489,27.8258092],[121.1568698,27.8264866],[121.15750623568766,27.82691239153259],[121.1557199113532,27.82691239153259],[121.1560105,27.8265113],[121.15432,27.8264287]]]]}}]}
