{"type":"FeatureCollection","features":[{"type":"Feature","id":"way/702532881","properties":{"highway":"secondary","name":"环岛公路","id":"way/702532881"},"geometry":{"type":"MultiLineString","coordinates":[[[121.15457527977742,27.82691239153259],[121.1543796,27.8267778],[121.1542771,27.8266386],[121.1542246,27.8265039],[121.1542023,27.8263496],[121.1542283,27.8262004],[121.1542583,27.8261302],[121.1543015,27.8260289],[121.1546418,27.8256203],[121.1547414,27.8254619],[121.1547874,27.8253051],[121.1547896,27.8251539],[121.1547399,27.8250049],[121.1546635,27.8248794],[121.1544577,27.8246418],[121.1541649762689,27.824355156207936]]]}},{"type":"Feature","id":"way/703987808","properties":{"highway":"residential","id":"way/703987808"},"geometry":{"type":"MultiLineString","coordinates":[[[121.1602550237311,27.823516661236184],[121.1601026,27.8234788],[121.1599343,27.8233991],[121.1596458,27.8231546],[121.1593212,27.8227293],[121.1592851,27.8225007],[121.1592731,27.8223466],[121.1592731,27.8221658],[121.1593933,27.8219532],[121.1592551,27.8216396]]]}},{"type":"Feature","id":"way/1546274170","properties":{"highway":"residential","id":"way/1546274170"},"geometry":{"type":"MultiLineString","coordinates":[[[121.155982,27.8258408],[121.1560491,27.8262559],[121.1560303,27.826448],[121.1560893,27.8266425],[121.1561939,27.8268797]]]}},{"type":"Feature","id":"way/1546274171","properties":{"highway":"residential","id":"way/1546274171"},"geometry":{"type":"MultiLineString","coordinates":[[[121.1561349,27.8243179],[121.1561751,27.8245622],[121.1560893,27.8251647],[121.1560035,27.8255348],[121.155982,27.8258408],[121.1557326,27.8260353],[121.1554268,27.8261302],[121.1550862,27.8262179],[121.1548072,27.8262227],[121.154547,27.8262037],[121.1542583,27.8261302]]]}}]}
