{"type":"FeatureCollection","features":[{"type":"Feature","properties":{"source":"bbox minus OSM land"},"geometry":{"type":"MultiPolygon","coordinates":[[[[121.1541649762689,27.821497608467407],[121.15869745201158,27.821497608467407],[121.158791,27.8215782],[121.158673,27.8217],[121.1585904,27.8216965],[121.158551,27.8217661],[121.1585353,27.82186],[121.1584606,27.8219679],[121.1584173,27.8218948],[121.1582993,27.8218183],[121.158256,27.8218427],[121.158437,27.822027],[121.1583504,27.8221175],[121.1581144,27.8222288],[121.1577997,27.8223402],[121.1576384,27.822288],[121.1574771,27.8223262],[121.1572765,27.8222845],[121.1570798,27.8221871],[121.1570365,27.8220584],[121.15695,27.8219679],[121.1566943,27.8218392],[121.1564464,27.821867],[121.1565409,27.8219714],[121.15667,27.8221901],[121.1568961,27.8223065],[121.1569505,27.8225623],[121.1569616,27.822932],[121.1573603,27.8233422],[121.1574078,27.8234289],[121.1575522,27.8235399],[121.1568981,27.8239078],[121.1562539,27.8242952],[121.1561965,27.8240176],[121.1561288,27.8240151],[121.1557277,27.8232973],[121.1556645,27.823333],[121.1558804,27.8236876],[121.1554765,27.8238327],[121.1549342,27.8235863],[121.15434,27.8234499],[121.1541649762689,27.82330983524232],[121.1541649762689,27.821497608467407]]]]}}]}
