{
  "type": "FeatureCollection",
  "features": [
    {
      "type": "Feature",
      "id": "way/836475194",
      "properties": {
        "amenity": "place_of_worship",
        "building": "yes",
        "religion": "buddhist",
        "id": "way/836475194"
      },
      "geometry": {
        "type": "MultiPolygon",
        "coordinates": [
          [
            [
              [
                121.1478261,
                27.8310616
              ],
              [
                121.1479062,
                27.8309526
              ],
              [
                121.148048,
                27.8309145
              ],
              [
                121.1481527,
                27.8309744
              ],
              [
                121.1482267,
                27.8310834
              ],
              [
                121.1482082,
                27.8311979
              ],
              [
                121.1480849,
                27.8312633
              ],
              [
                121.1478569,
                27.8311979
              ],
              [
                121.1478261,
                27.8310616
              ]
            ]
          ]
        ]
      }
    }
  ]
}
