{"type":"FeatureCollection","features":[{"type":"Feature","id":"way/836480413","properties":{"natural":"beach","id":"way/836480413"},"geometry":{"type":"MultiPolygon","coordinates":[[[[121.14748628989221,27.81648],[121.14806485555556,27.81648],[121.1481841,27.8166508],[121.1485488,27.8168359],[121.1491765,27.816945],[121.149273,27.8170921],[121.1495252,27.8170968],[121.149788,27.8172961],[121.1496646,27.817353],[121.1496378,27.8175713],[121.1499865,27.8177658],[121.1502386,27.8183636],[121.1498978,27.818494],[121.1498125,27.8180914],[121.1495289,27.8177152],[121.1490451,27.8173847],[121.1486556,27.8173106],[121.1478845,27.8173107],[121.14748628989221,27.81648]]]]}},{"type":"Feature","id":"way/836480414","properties":{"name":"东岙沙滩","natural":"beach","id":"way/836480414"},"geometry":{"type":"MultiPolygon","coordinates":[[[[121.1562663,27.824499],[121.1576038,27.823672],[121.1578355,27.8236504],[121.157681,27.8242041],[121.1572094,27.8245421],[121.1568618,27.8246951],[121.1565671,27.824765],[121.1563801,27.8246715],[121.1562663,27.824499]]]]}},{"type":"Feature","id":"way/836480415","properties":{"landuse":"residential","residential":"apartments","id":"way/836480415"},"geometry":{"type":"MultiPolygon","coordinates":[[[[121.14685,27.82252446332032],[121.1471386,27.8223503],[121.1478671,27.8239197],[121.1484182,27.8244153],[121.1492308,27.8244566],[121.1494549,27.8248614],[121.1491654,27.8251752],[121.1486424,27.8252744],[121.1478858,27.8255056],[121.1476336,27.8245309],[121.14685,27.823496455590035],[121.14685,27.82252446332032]]]]}},{"type":"Feature","id":"way/836480424","properties":{"landuse":"residential","id":"way/836480424"},"geometry":{"type":"MultiPolygon","coordinates":[[[[121.14685,27.829546594673417],[121.1475499,27.8295313],[121.1475438,27.8307084],[121.1471432,27.8312478],[121.14685,27.83122273142558],[121.14685,27.829546594673417]]]]}},{"type":"Feature","id":"way/836480426","properties":{"natural":"wood","id":"way/836480426"},"geometry":{"type":"MultiPolygon","coordinates":[[[[121.14685,27.831162498890766],[121.1473454,27.8311711],[121.1476869,27.829999],[121.1487357,27.8299343],[121.1488984,27.8302219],[121.1484837,27.8309626],[121.1494675,27.8318829],[121.1489715,27.8327242],[121.1486544,27.8330693],[121.1474754,27.8329615],[121.1471096,27.833774],[121.14685,27.833927035583493],[121.14685,27.831162498890766]]]]}},{"type":"Feature","id":"way/836480427","properties":{"landuse":"industrial","id":"way/836480427"},"geometry":{"type":"MultiPolygon","coordinates":[[[[121.14685,27.82768174800821],[121.1484791,27.8283847],[121.1486023,27.8295563],[121.14685,27.829466600234817],[121.14685,27.82768174800821]]]]}},{"type":"Feature","id":"way/836480449","properties":{"landuse":"residential","id":"way/836480449"},"geometry":{"type":"MultiPolygon","coordinates":[[[[121.14685,27.834404651394486],[121.14706214774324,27.83452],[121.14685,27.83452],[121.14685,27.834404651394486]]],[[[121.1478543,27.8224613],[121.148817,27.8226366],[121.151436,27.8236507],[121.1528375,27.8242266],[121.1528658,27.8248151],[121.1537294,27.8246523],[121.1542815,27.8255913],[121.1537577,27.8262548],[121.1541116,27.8269184],[121.1551592,27.8276445],[121.1558387,27.8294223],[121.1573252,27.8298229],[121.1590948,27.8294098],[121.1600716,27.8295475],[121.160652,27.8292846],[121.1627614,27.8308871],[121.1622801,27.8313127],[121.1612749,27.8313503],[121.1613599,27.8323518],[121.1602895,27.8327562],[121.1598026,27.8329402],[121.1593071,27.8327149],[121.1582454,27.8327775],[121.157849,27.8326523],[121.1570562,27.8332657],[121.1564758,27.833779],[121.1557113,27.8337039],[121.1553432,27.8339292],[121.15626180088432,27.83452],[121.14893637093456,27.83452],[121.1482932,27.834092],[121.1485621,27.8334535],[121.1490718,27.8329653],[121.1496664,27.8317259],[121.150714,27.8322391],[121.1507423,27.8314254],[121.1513369,27.8312126],[121.1516766,27.8316257],[121.1514643,27.8306993],[121.1511528,27.8304364],[121.1497655,27.8309997],[121.1503884,27.8295225],[121.1497513,27.8283707],[121.1500061,27.828233],[121.150714,27.8287963],[121.151436,27.8285585],[121.1512661,27.8278699],[121.1512378,27.827006],[121.1520305,27.8272189],[121.1511387,27.8263675],[121.149454,27.8260045],[121.1497513,27.8253534],[121.1494682,27.8252407],[121.1497088,27.8248025],[121.1493124,27.824164],[121.1502043,27.8242642],[121.149907,27.8239512],[121.1486188,27.8233878],[121.1481091,27.8235255],[121.1478543,27.8224613]]],[[[121.15651852113952,27.83452],[121.1570137,27.8338791],[121.1574951,27.834142],[121.15780353231226,27.83452],[121.15651852113952,27.83452]]]]}},{"type":"Feature","id":"way/836480452","properties":{"landuse":"residential","id":"way/836480452"},"geometry":{"type":"MultiPolygon","coordinates":[[[[121.1624645,27.8285185],[121.1638841,27.8288159],[121.1641643,27.828312],[121.1655373,27.8280394],[121.1660417,27.8274199],[121.1670878,27.8282955],[121.16715,27.828286332048535],[121.16715,27.83010125859197],[121.1664059,27.830633],[121.1656168,27.8310554],[121.164293,27.8308042],[121.1642951,27.8299557],[121.1628848,27.829551],[121.1624645,27.8285185]]]]}},{"type":"Feature","id":"way/836480453","properties":{"landuse":"residential","id":"way/836480453"},"geometry":{"type":"MultiPolygon","coordinates":[[[[121.15432,27.8264287],[121.1549084,27.8253054],[121.1547309,27.8245207],[121.155805,27.824752],[121.1555435,27.8241077],[121.1558237,27.8240003],[121.1561226,27.8245372],[121.1562067,27.825198],[121.1578412,27.8242481],[121.1581774,27.823579],[121.1589526,27.8226621],[121.1598026,27.8226043],[121.1608767,27.8231577],[121.161325,27.8227943],[121.1616986,27.8231164],[121.1613623,27.8240829],[121.161792,27.8244876],[121.1612596,27.8249585],[121.1615211,27.8256936],[121.1609607,27.8263296],[121.1609981,27.8270978],[121.1618947,27.8276512],[121.1612036,27.8284689],[121.1606245,27.8280064],[121.1598119,27.8268996],[121.1592982,27.8262801],[121.1574489,27.8258092],[121.1568698,27.8264866],[121.1579439,27.8272052],[121.1584109,27.8274199],[121.158056,27.8277669],[121.15715,27.8277586],[121.1561786,27.8278577],[121.1561693,27.827453],[121.1553941,27.8273621],[121.1560105,27.8265113],[121.15432,27.8264287]]]]}},{"type":"Feature","id":"way/967108289","properties":{"natural":"wood","id":"way/967108289"},"geometry":{"type":"MultiPolygon","coordinates":[[[[121.1482188,27.8262999],[121.1482523,27.8261336],[121.1484135,27.8260475],[121.1484907,27.8256646],[121.1485444,27.8254034],[121.1487323,27.8253232],[121.1489002,27.8254242],[121.1488968,27.8255132],[121.1487122,27.8258338],[121.1488733,27.8261218],[121.1486618,27.8262227],[121.1499374,27.8263503],[121.1503301,27.8265641],[121.1497058,27.8268847],[121.1489337,27.8268401],[121.1483329,27.826573],[121.1482188,27.8262999]]]]}},{"type":"Feature","id":"way/967108293","properties":{"natural":"wood","id":"way/967108293"},"geometry":{"type":"MultiPolygon","coordinates":[[[[121.1622724,27.8206737],[121.1624259,27.8207433],[121.1623944,27.8206598],[121.1623196,27.8204997],[121.1623039,27.8203849],[121.1623275,27.8203571],[121.1623787,27.8203571],[121.1623983,27.8203153],[121.1623826,27.8202179],[121.1624888,27.8202701],[121.162595,27.8203501],[121.162654,27.8203049],[121.1626344,27.8202214],[121.1625242,27.8201274],[121.1624809,27.8200544],[121.1625242,27.8199952],[121.1625989,27.819957],[121.1626973,27.8199709],[121.1627838,27.8200196],[121.16278,27.8200901],[121.16481,27.81973],[121.1648201,27.8192099],[121.1659799,27.8192299],[121.1661701,27.8166599],[121.16596929588303,27.81648],[121.16715,27.81648],[121.16715,27.82690100983328],[121.1663372,27.8267749],[121.165899,27.8259883],[121.1659377,27.8253386],[121.1662728,27.8250764],[121.1664404,27.824609],[121.1660537,27.8243696],[121.1641054,27.8224878],[121.1639816,27.8223471],[121.1638269,27.8222298],[121.1636899,27.8220695],[121.1635661,27.821878],[121.163491,27.821749],[121.1632823,27.8215424],[121.1626383,27.8211364],[121.1624731,27.8210251],[121.1623668,27.8209033],[121.1623236,27.8207954],[121.1622724,27.8206737]]]]}},{"type":"Feature","id":"way/967108305","properties":{"natural":"wood","id":"way/967108305"},"geometry":{"type":"MultiPolygon","coordinates":[[[[121.1602446,27.833021],[121.1602895,27.8327562],[121.1613599,27.8323518],[121.1615811,27.8326216],[121.1623484,27.83272],[121.1627877,27.8331578],[121.1636972,27.8332946],[121.1645326,27.833125],[121.1645202,27.8327857],[121.1647986,27.8324136],[121.1652627,27.8319814],[121.1653926,27.831467],[121.1658938,27.8313877],[121.1665868,27.8315245],[121.16715,27.83175838521058],[121.16715,27.83240423592136],[121.1665992,27.8322084],[121.1666518,27.8324683],[121.1664414,27.8324574],[121.1657206,27.8325559],[121.1655999,27.8330347],[121.1659186,27.8333794],[121.1660052,27.8336967],[121.165835,27.8338636],[121.165173,27.8340332],[121.1650678,27.8341782],[121.16523667418505,27.83452],[121.16380765221932,27.83452],[121.1632641,27.8344053],[121.1621937,27.8344929],[121.1612284,27.8342904],[121.1604364,27.8337651],[121.1602446,27.833021]]]]}},{"type":"Feature","id":"way/1008968130","properties":{"natural":"wood","id":"way/1008968130"},"geometry":{"type":"MultiPolygon","coordinates":[[[[121.14915037928698,27.81648],[121.15104743927225,27.81648],[121.1516744,27.8167032],[121.1516529,27.8170733],[121.1513257,27.8173817],[121.151197,27.817728],[121.1522269,27.8186532],[121.1526185,27.8191134],[121.1521357,27.8194977],[121.1517173,27.8192842],[121.1513418,27.8190944],[121.1506122,27.8185251],[121.1503601,27.8181645],[121.1501348,27.817766],[121.1498183,27.8175667],[121.1498022,27.8173864],[121.1498988,27.8172251],[121.149416,27.8169879],[121.14915037928698,27.81648]]]]}},{"type":"Feature","id":"node/13607337546","properties":{"name":"洞头韭菜岙沙滩","natural":"beach","supervised":"yes","id":"node/13607337546"},"geometry":{"type":"Point","coordinates":[121.1479703,27.8167585]}}]}
