{"type":"FeatureCollection","features":[{"type":"Feature","properties":{"source":"OSM complete island boundaries"},"geometry":{"type":"MultiPolygon","coordinates":[[[[121.14685,27.822090714959014],[121.1469925,27.8220328],[121.1473454,27.8219342],[121.1477365,27.821897],[121.1481062,27.8219452],[121.149078,27.8222208],[121.1496829,27.822218],[121.1506116,27.8220047],[121.1505618,27.8216056],[121.1507172,27.8215981],[121.1508972,27.8216043],[121.1521663,27.8216482],[121.1530451,27.8216786],[121.1533247,27.8218096],[121.1531824,27.8219625],[121.1533257,27.8220484],[121.1536227,27.8220155],[121.153878,27.8220942],[121.1541011,27.822521],[121.1540085,27.822699],[121.15377,27.82292],[121.1540341,27.8232051],[121.15434,27.8234499],[121.1549342,27.8235863],[121.1554765,27.8238327],[121.1558804,27.8236876],[121.1556645,27.823333],[121.1557277,27.8232973],[121.1561288,27.8240151],[121.1561965,27.8240176],[121.1562539,27.8242952],[121.1568981,27.8239078],[121.1575522,27.8235399],[121.1574078,27.8234289],[121.1573603,27.8233422],[121.1569616,27.822932],[121.1569505,27.8225623],[121.1568961,27.8223065],[121.15667,27.8221901],[121.1565409,27.8219714],[121.1564464,27.821867],[121.1566943,27.8218392],[121.15695,27.8219679],[121.1570365,27.8220584],[121.1570798,27.8221871],[121.1572765,27.8222845],[121.1574771,27.8223262],[121.1576384,27.822288],[121.1577997,27.8223402],[121.1581144,27.8222288],[121.1583504,27.8221175],[121.158437,27.822027],[121.158256,27.8218427],[121.1582993,27.8218183],[121.1584173,27.8218948],[121.1584606,27.8219679],[121.1585353,27.82186],[121.158551,27.8217661],[121.1585904,27.8216965],[121.158673,27.8217],[121.158791,27.8215782],[121.1586336,27.8214426],[121.1586848,27.8213799],[121.1586061,27.8212721],[121.1586454,27.8212477],[121.1587635,27.821293],[121.158972,27.82146],[121.1591332,27.8213277],[121.1592119,27.8211816],[121.1592355,27.8210146],[121.1593142,27.820865],[121.1593063,27.8208059],[121.1591096,27.8207607],[121.1587399,27.8205658],[121.1587595,27.8204928],[121.1586218,27.8204336],[121.1584173,27.8202109],[121.1582324,27.820037],[121.1581537,27.8199291],[121.1581104,27.8197935],[121.1581301,27.8196612],[121.1581891,27.8195777],[121.1583032,27.8195603],[121.1583504,27.8196717],[121.1584842,27.8197969],[121.1586258,27.8199639],[121.1586887,27.8201518],[121.1587831,27.8202944],[121.1588775,27.8203327],[121.1588421,27.8201831],[121.1589484,27.8200405],[121.1589326,27.8199257],[121.1591214,27.8199152],[121.1592945,27.8199639],[121.1592316,27.8198317],[121.1592277,27.8197308],[121.1594086,27.8198317],[121.159507,27.8199605],[121.1595424,27.8198804],[121.1594873,27.8197517],[121.1595463,27.8196786],[121.1596564,27.8195951],[121.1598059,27.8196926],[121.1598925,27.819616],[121.1600184,27.8196438],[121.1601206,27.8197343],[121.1603016,27.819877],[121.160573,27.8199605],[121.1606478,27.8199257],[121.1608799,27.8200092],[121.1609821,27.8200857],[121.1613559,27.8201205],[121.1616509,27.8202353],[121.1618987,27.8205206],[121.1620915,27.8206006],[121.162182,27.8207641],[121.1623275,27.8209242],[121.1625163,27.821119],[121.1626186,27.8211781],[121.1626383,27.8211364],[121.1624731,27.8210251],[121.1623668,27.8209033],[121.1623236,27.8207954],[121.1622724,27.8206737],[121.1624259,27.8207433],[121.1623944,27.8206598],[121.1623196,27.8204997],[121.1623039,27.8203849],[121.1623275,27.8203571],[121.1623787,27.8203571],[121.1623983,27.8203153],[121.1623826,27.8202179],[121.1624888,27.8202701],[121.162595,27.8203501],[121.162654,27.8203049],[121.1626344,27.8202214],[121.1625242,27.8201274],[121.1624809,27.8200544],[121.1625242,27.8199952],[121.1625989,27.819957],[121.1626973,27.8199709],[121.1627838,27.8200196],[121.16278,27.8200901],[121.16481,27.81973],[121.1648201,27.8192099],[121.1659799,27.8192299],[121.1661701,27.8166599],[121.16596929588303,27.81648],[121.16715,27.81648],[121.16715,27.83452],[121.14685,27.83452],[121.14685,27.822090714959014]]],[[[121.14748628989221,27.81648],[121.1520935162067,27.81648],[121.1518201,27.8180099],[121.15269,27.81828],[121.15269,27.8185401],[121.15298,27.8185401],[121.1529599,27.8193101],[121.1522236,27.8196496],[121.151711,27.8196056],[121.1516724,27.8194077],[121.1513544,27.8193694],[121.1510413,27.8189823],[121.1505636,27.8189584],[121.1504254,27.8187039],[121.1501259,27.8185246],[121.1498478,27.8185955],[121.149475,27.818599],[121.1498978,27.818494],[121.1498125,27.8180914],[121.1495289,27.8177152],[121.1490451,27.8173847],[121.1486556,27.8173106],[121.1478845,27.8173107],[121.14748628989221,27.81648]]],[[[121.1546977,27.8185817],[121.1547114,27.8184908],[121.1549169,27.8184727],[121.1551635,27.8185029],[121.1553621,27.8185999],[121.1554785,27.8187392],[121.155547,27.8188846],[121.1555676,27.8190784],[121.1555265,27.8191208],[121.1553895,27.8190905],[121.1552799,27.8191511],[121.1549854,27.8189209],[121.1548552,27.8188058],[121.1547936,27.818721],[121.1546977,27.8185817]]]]}}]}
