{"type":"FeatureCollection","features":[{"type":"Feature","id":"way/1008968131","properties":{"area":"yes","highway":"pedestrian","id":"way/1008968131"},"geometry":{"type":"MultiPolygon","coordinates":[[[[121.1508972,27.8216043],[121.1521663,27.8216482],[121.1530451,27.8216786],[121.1533247,27.8218096],[121.1531824,27.8219625],[121.153155,27.8220573],[121.1526373,27.8224914],[121.1521277,27.8220288],[121.1520365,27.8220786],[121.151956,27.8220573],[121.1518836,27.8220264],[121.151846,27.8219553],[121.1518301,27.8218662],[121.1517848,27.8219679],[121.15181,27.8221434],[121.1516519,27.8220805],[121.151507,27.8220478],[121.1515892,27.8219744],[121.1516663,27.8219794],[121.1516744,27.8218983],[121.1511701,27.8218817],[121.1511608,27.8220064],[121.1508983,27.8220613],[121.1508972,27.8216043]]]]}},{"type":"Feature","id":"way/408912047","properties":{"highway":"secondary","name":"环岛公路","id":"way/408912047"},"geometry":{"type":"MultiLineString","coordinates":[[[121.1537168,27.8239096],[121.1534623,27.8236523],[121.1524009,27.8225464],[121.1519513,27.8221996],[121.15181,27.8221434],[121.1516519,27.8220805],[121.151507,27.8220478],[121.1513209,27.8220058],[121.1511608,27.8220064],[121.1509578,27.822045],[121.1508983,27.8220613],[121.1503475,27.8222118],[121.1497669,27.8223277],[121.1492829,27.8223393],[121.1488738,27.8222549],[121.1481952,27.8220677],[121.1477995,27.8220191],[121.1476513,27.822028],[121.1474253,27.8220416],[121.1470281,27.8221486],[121.14685,27.82223910549777]]]}},{"type":"Feature","id":"way/506084784","properties":{"highway":"secondary","name":"环岛公路","id":"way/506084784"},"geometry":{"type":"MultiLineString","coordinates":[[[121.16715,27.8316814589307],[121.1670506,27.8316056],[121.1667886,27.8314933],[121.166446,27.8314096]]]}},{"type":"Feature","id":"way/506084787","properties":{"bridge":"yes","highway":"tertiary","layer":"1","name":"半屏大桥","ref":"Y812","id":"way/506084787"},"geometry":{"type":"MultiLineString","coordinates":[[[121.1515033,27.8225023],[121.1514702,27.8219518],[121.1515181,27.819231],[121.1514942,27.8190656]]]}},{"type":"Feature","id":"way/506084788","properties":{"highway":"tertiary","name":"半屏线","id":"way/506084788"},"geometry":{"type":"MultiLineString","coordinates":[[[121.1514942,27.8190656],[121.1514363,27.8189426],[121.1512782,27.8187926],[121.1509323,27.8185614],[121.1507417,27.8184064],[121.1505391,27.8181926],[121.1503471,27.8178501],[121.1501222,27.8173012],[121.1499983,27.8171371],[121.1498198,27.8170081],[121.1495979,27.8169186],[121.1494209,27.8168766],[121.1486251,27.8167045],[121.1484408,27.8166289],[121.1483005,27.816519],[121.14826508001624,27.81648]]]}},{"type":"Feature","id":"way/702532878","properties":{"highway":"unclassified","id":"way/702532878"},"geometry":{"type":"MultiLineString","coordinates":[[[121.15317224718935,27.83452],[121.1532326,27.8343817],[121.153415,27.8339406],[121.1535545,27.8337224],[121.1536244,27.8331415],[121.1536457,27.8328828],[121.1536296,27.8326788],[121.1535759,27.832546],[121.1533453,27.832195],[121.1531951,27.8321286],[121.1527821,27.8319531],[121.152546,27.8317681],[121.1524441,27.8316305],[121.1523315,27.8314597],[121.1521545,27.830696],[121.1521169,27.8304114],[121.1521235,27.8303723],[121.1521384,27.8302833],[121.152251,27.8300936],[121.1524548,27.8298469],[121.152589,27.8296572],[121.152664,27.8294864],[121.1526801,27.8294105],[121.1526694,27.8293156],[121.1525729,27.8291686],[121.1524495,27.8290405],[121.1524173,27.8289172],[121.1524602,27.8287037],[121.1526533,27.8282056],[121.1526962,27.8278878],[121.1527177,27.8276079],[121.1526185,27.8271676],[121.1525782,27.8269675],[121.1525514,27.8266259],[121.1525729,27.826384],[121.1526211,27.8261515],[121.1525782,27.8259665],[121.1523368,27.8254305],[121.1522349,27.825217],[121.1521062,27.825032],[121.1519399,27.8249229],[121.1515376,27.8247948],[121.1513552,27.8246999],[121.1510548,27.8245813],[121.1508617,27.8243963],[121.1506793,27.8240595],[121.1504701,27.8236231],[121.150379,27.8234665],[121.1501912,27.8232957],[121.1499659,27.8231297],[121.1490487,27.8223991],[121.1488738,27.8222549]]]}},{"type":"Feature","id":"way/702532881","properties":{"highway":"secondary","name":"环岛公路","id":"way/702532881"},"geometry":{"type":"MultiLineString","coordinates":[[[121.1661499,27.831349],[121.1650085,27.8311037],[121.1640138,27.8308516],[121.1635176,27.8307027],[121.1630445,27.8304836],[121.1627176,27.8302592],[121.1624507,27.8300213],[121.1621695,27.8297407],[121.1620954,27.8296667],[121.1613757,27.8288859],[121.1613342,27.8288409],[121.1607965,27.8283728],[121.1603832,27.828157],[121.1601728,27.8280956],[121.1599374,27.8280408],[121.1595446,27.8279903],[121.1591011,27.8279928],[121.158779,27.8280304],[121.1581618,27.8281507],[121.1577646,27.8282409],[121.1573619,27.828302],[121.1570264,27.8282981],[121.1566739,27.8282144],[121.1563437,27.8280778],[121.1554922,27.82755],[121.1547563,27.8270369],[121.1543796,27.8267778],[121.1542771,27.8266386],[121.1542246,27.8265039],[121.1542023,27.8263496],[121.1542283,27.8262004],[121.1542583,27.8261302],[121.1543015,27.8260289],[121.1546418,27.8256203],[121.1547414,27.8254619],[121.1547874,27.8253051],[121.1547896,27.8251539],[121.1547399,27.8250049],[121.1546635,27.8248794],[121.1544577,27.8246418],[121.1539955,27.8241892],[121.1537168,27.8239096]]]}},{"type":"Feature","id":"way/702532882","properties":{"highway":"secondary","layer":"-1","tunnel":"yes","id":"way/702532882"},"geometry":{"type":"MultiLineString","coordinates":[[[121.166446,27.8314096],[121.1661499,27.831349]]]}},{"type":"Feature","id":"way/702532885","properties":{"highway":"unclassified","id":"way/702532885"},"geometry":{"type":"MultiLineString","coordinates":[[[121.1621695,27.8297407],[121.1621836,27.8298419],[121.1621518,27.829939],[121.1620668,27.8300422],[121.1617943,27.8302644],[121.1614829,27.8305242],[121.1613201,27.8305743],[121.1610335,27.8305962],[121.16086,27.8306056],[121.1607114,27.8306588],[121.1605982,27.8307339],[121.160498,27.8308236],[121.1603327,27.8309717],[121.1600815,27.8311626],[121.1598797,27.8312346],[121.1595719,27.8312784],[121.1575016,27.8315382],[121.1574579,27.8315529],[121.1573529,27.8315883],[121.1572008,27.8316915],[121.1570769,27.8318637],[121.1570113,27.8320004],[121.1569283,27.8321735],[121.1567584,27.8324552],[121.1566522,27.8325803],[121.1565425,27.8326461],[121.1563125,27.8327087],[121.1561568,27.8327712],[121.1560223,27.832862],[121.155946,27.8329463],[121.155909,27.8329872],[121.1557569,27.8331687],[121.1556365,27.8332438],[121.1555056,27.8333158],[121.155357,27.8333471],[121.1551835,27.8333596],[121.1550243,27.8333533],[121.1548367,27.833322],[121.1541856,27.8331843],[121.1538777,27.833153],[121.1536244,27.8331415]]]}},{"type":"Feature","id":"way/702532886","properties":{"highway":"unclassified","id":"way/702532886"},"geometry":{"type":"MultiLineString","coordinates":[[[121.1620668,27.8300422],[121.1621624,27.8300078],[121.1622792,27.829989],[121.1623676,27.8299953],[121.1624507,27.8300213]]]}},{"type":"Feature","id":"way/702532887","properties":{"highway":"tertiary","id":"way/702532887"},"geometry":{"type":"MultiLineString","coordinates":[[[121.1574579,27.8315529],[121.1574131,27.8315069],[121.1573671,27.83146],[121.1572786,27.8314224],[121.1552968,27.8307026],[121.1551729,27.8306776],[121.1550137,27.8306713],[121.1538883,27.83064],[121.1537396,27.8306588],[121.1535769,27.8306525],[121.1534565,27.8306525],[121.1533574,27.8306995],[121.1533008,27.8307527]]]}},{"type":"Feature","id":"way/703442756","properties":{"highway":"residential","id":"way/703442756"},"geometry":{"type":"MultiLineString","coordinates":[[[121.1651938251282,27.83452],[121.1651826,27.8344905],[121.1650332,27.8342673],[121.1649817,27.8341124],[121.1649869,27.8340076],[121.1651157,27.8339438],[121.1654145,27.8339438],[121.165703,27.8339392],[121.1659297,27.8338982],[121.1660276,27.8338117],[121.1660791,27.8336112],[121.1660739,27.8334153],[121.1656875,27.8331055],[121.1656927,27.8328732],[121.1657339,27.832659],[121.1658009,27.8325269],[121.1662955,27.8323082],[121.1663367,27.8322171],[121.1662697,27.8320895],[121.1660482,27.8319255],[121.1660482,27.8318162],[121.1661564,27.8316522],[121.1662182,27.8315337],[121.1662388,27.8310326],[121.1662122,27.8309503],[121.166177,27.8308412],[121.1660585,27.8306681],[121.1658421,27.8304904],[121.1646365,27.8297113],[121.1641162,27.8293924],[121.1640132,27.8293787],[121.1639204,27.8294106],[121.1637916,27.8295883],[121.1636371,27.8299027],[121.1634722,27.8300712],[121.1633537,27.8300895],[121.16289,27.8300029],[121.1625088,27.8298844],[121.1623954,27.8298024],[121.1622718,27.8295518],[121.1621327,27.8293013],[121.1619524,27.8291782],[121.161803,27.8290871],[121.1617205,27.828996],[121.1617051,27.8288138],[121.1617009,27.8287102],[121.1616593,27.8285272],[121.1616948,27.8283217],[121.1620503,27.8281668],[121.1627149,27.8280757],[121.1632404,27.82798],[121.1639668,27.8281531],[121.1645129,27.8281577],[121.1649457,27.8281076],[121.1652496,27.8280574],[121.1654918,27.827939],[121.1655896,27.8276428],[121.1656,27.8274469],[121.1655639,27.8272009],[121.1655471,27.8269167],[121.1654954,27.8260714],[121.1654547,27.8255197],[121.16544,27.8251365],[121.1654454,27.8243532],[121.165466,27.824089],[121.165533,27.8239067],[121.1657133,27.8238065],[121.1659142,27.8237974],[121.1661615,27.8238384],[121.1663676,27.8238202],[121.166584,27.8238521],[121.1669652,27.8238202],[121.16715,27.823749192746522]],[[121.16715,27.821394600420433],[121.1671281,27.8213617],[121.167097,27.8210777],[121.1671384,27.8207755],[121.1670452,27.8202473],[121.1670666,27.8200714],[121.1671212,27.8196218],[121.1671029,27.8192028],[121.16715,27.819136859999993]]]}},{"type":"Feature","id":"way/703442757","properties":{"highway":"residential","id":"way/703442757"},"geometry":{"type":"MultiLineString","coordinates":[[[121.1613757,27.8288859],[121.1615424,27.8287733],[121.1617009,27.8287102]]]}},{"type":"Feature","id":"way/703469423","properties":{"highway":"residential","id":"way/703469423"},"geometry":{"type":"MultiLineString","coordinates":[[[121.1521235,27.8303723],[121.1520068,27.8302767],[121.1516799,27.8299298],[121.1514978,27.8298431],[121.151367,27.8298431],[121.1512176,27.8298678],[121.1507226,27.8301032],[121.1505311,27.8302437],[121.1504611,27.8303304],[121.1503163,27.8303882],[121.1501061,27.8304212],[121.1498166,27.8304419],[121.1497092,27.8304419],[121.1496298,27.8304295],[121.1494944,27.8303469],[121.1493263,27.8301239],[121.1490974,27.8299422],[121.1489853,27.8298513],[121.1488546,27.8298059],[121.1485464,27.82981],[121.1477852,27.8298472],[121.1476124,27.8298761],[121.1474442,27.8300537],[121.1473135,27.8301198],[121.1471454,27.8301156],[121.1469259,27.8300867],[121.14685,27.830077121797324]]]}},{"type":"Feature","id":"way/703469431","properties":{"highway":"tertiary","id":"way/703469431"},"geometry":{"type":"MultiLineString","coordinates":[[[121.1478369,27.8251048],[121.1476089,27.8251539],[121.1474641,27.8246689],[121.1473008,27.8242874],[121.1470789,27.8238896],[121.14685,27.823576290934156]]]}},{"type":"Feature","id":"way/703987808","properties":{"highway":"residential","id":"way/703987808"},"geometry":{"type":"MultiLineString","coordinates":[[[121.1603832,27.828157],[121.1604211,27.8280004],[121.1604707,27.8276269],[121.1605771,27.8273364],[121.1610577,27.8272598],[121.1611286,27.8270852],[121.1611656,27.8269251],[121.1611279,27.826718],[121.1610865,27.8265324],[121.1610796,27.8263745],[121.1611559,27.8261718],[121.1612588,27.8260551],[121.1614704,27.8258982],[121.1616411,27.8257868],[121.1617743,27.8256398],[121.1618847,27.8254698],[121.1622292,27.8246725],[121.1622776,27.8245543],[121.1622557,27.8244311],[121.1621579,27.8243485],[121.161986,27.8242735],[121.1618044,27.8242447],[121.1614575,27.824206],[121.1612359,27.8241397],[121.1610201,27.8239744],[121.1608282,27.8238099],[121.1607157,27.8236808],[121.1604452,27.8235639],[121.1601026,27.8234788],[121.1599343,27.8233991],[121.1596458,27.8231546],[121.1593212,27.8227293],[121.1592851,27.8225007],[121.1592731,27.8223466],[121.1592731,27.8221658],[121.1593933,27.8219532],[121.1592551,27.8216396]]]}},{"type":"Feature","id":"way/703987809","properties":{"highway":"residential","id":"way/703987809"},"geometry":{"type":"MultiLineString","coordinates":[[[121.161043,27.8215167],[121.1607709,27.8219517],[121.1607971,27.8221183],[121.1609227,27.8222942],[121.161064,27.8223636],[121.1614459,27.8224562],[121.1616814,27.8224932],[121.161807,27.8225302],[121.1618815,27.8225932],[121.1619273,27.822632],[121.161943,27.8229976],[121.1619954,27.823354],[121.1620686,27.8234558],[121.1623146,27.8235946],[121.1629314,27.8240124],[121.1634268,27.8244542],[121.1639863,27.8248676],[121.1643626,27.8252801],[121.1644809,27.825367],[121.1646379,27.8254271],[121.1650041,27.8254457],[121.1652134,27.825478],[121.1654547,27.8255197]]]}},{"type":"Feature","id":"way/703987810","properties":{"highway":"residential","id":"way/703987810"},"geometry":{"type":"MultiLineString","coordinates":[[[121.1608282,27.8238099],[121.1610858,27.8236594],[121.1613363,27.8234943],[121.1614912,27.8232284],[121.1616461,27.8229584],[121.1617281,27.8227772],[121.1618815,27.8225932]]]}},{"type":"Feature","id":"way/704062684","properties":{"highway":"tertiary","name":"半屏线","id":"way/704062684"},"geometry":{"type":"MultiLineString","coordinates":[[[121.1537168,27.8239096],[121.1535331,27.8239696],[121.1533658,27.8239857],[121.1532018,27.8239869],[121.1528806,27.8239496],[121.1525938,27.8238626],[121.1523664,27.8237701],[121.1521253,27.8236342],[121.1520243,27.8235503],[121.1518135,27.8233477],[121.1516797,27.8231445],[121.1515702,27.8229136],[121.1515193,27.822729],[121.1515033,27.8225023]]]}},{"type":"Feature","id":"way/704062685","properties":{"highway":"tertiary","oneway":"yes","id":"way/704062685"},"geometry":{"type":"MultiLineString","coordinates":[[[121.1539955,27.8241892],[121.1537023,27.824059],[121.1535344,27.8240154],[121.1533658,27.8239857],[121.1534295,27.8239096],[121.153463,27.8238589],[121.1534866,27.8237891],[121.1534793,27.8237291],[121.1534623,27.8236523]]]}},{"type":"Feature","id":"way/704062699","properties":{"highway":"residential","id":"way/704062699"},"geometry":{"type":"MultiLineString","coordinates":[[[121.1655471,27.8269167],[121.1658257,27.8269593],[121.1659097,27.8270101],[121.1659716,27.8270805],[121.1659451,27.8271821],[121.1658567,27.8273189],[121.1658434,27.8274205],[121.1658788,27.8276981],[121.1658964,27.8279326],[121.1658478,27.8281085],[121.1657197,27.8286284],[121.1656843,27.8288941]]]}},{"type":"Feature","id":"way/704062700","properties":{"highway":"residential","id":"way/704062700"},"geometry":{"type":"MultiLineString","coordinates":[[[121.1669556,27.8294407],[121.166938,27.8295775],[121.1669556,27.829683],[121.167044,27.8298433],[121.1671261,27.8299485],[121.1671324,27.8299566],[121.16715,27.83002267457629]]]}},{"type":"Feature","id":"way/704062701","properties":{"highway":"residential","id":"way/704062701"},"geometry":{"type":"MultiLineString","coordinates":[[[121.1671261,27.8299485],[121.1671015,27.8300348],[121.16715,27.83056301782188]]]}},{"type":"Feature","id":"way/704062702","properties":{"highway":"residential","id":"way/704062702"},"geometry":{"type":"MultiLineString","coordinates":[[[121.1662122,27.8309503],[121.1663109,27.8309487],[121.1663917,27.8310099],[121.1664648,27.831112],[121.1665379,27.8312073],[121.1665764,27.8312345],[121.1666225,27.8312243],[121.1666302,27.8311528],[121.1667649,27.8309555],[121.1668072,27.8308296],[121.1668342,27.830622],[121.1668919,27.8302239],[121.1669573,27.8300912],[121.167015,27.8300095],[121.1671261,27.8299485]]]}},{"type":"Feature","id":"way/967108290","properties":{"highway":"unclassified","id":"way/967108290"},"geometry":{"type":"MultiLineString","coordinates":[[[121.1476513,27.822028],[121.1476011,27.8222626],[121.1476314,27.822699],[121.1478764,27.8235451],[121.1481382,27.823928],[121.1485712,27.8242813],[121.1485611,27.8243436],[121.148437,27.8243169],[121.1482255,27.8241566],[121.1480308,27.8239993],[121.147774,27.8236475],[121.1475474,27.8231755],[121.1470859,27.8222849],[121.14685,27.82239544251207]]]}},{"type":"Feature","id":"way/967108291","properties":{"highway":"tertiary","id":"way/967108291"},"geometry":{"type":"MultiLineString","coordinates":[[[121.1617743,27.8256398],[121.1623133,27.8256973],[121.1623905,27.8256587],[121.1624644,27.8255785],[121.1626389,27.8252075],[121.1627732,27.8250204],[121.1629545,27.8249937],[121.1631256,27.8250234],[121.1634647,27.8252609],[121.163854,27.8254479],[121.1642367,27.825632],[121.1647738,27.8259971],[121.1649449,27.8260743],[121.1651531,27.8260861],[121.1654954,27.8260714]]]}},{"type":"Feature","id":"way/967108300","properties":{"highway":"unclassified","id":"way/967108300"},"geometry":{"type":"MultiLineString","coordinates":[[[121.1570113,27.8320004],[121.1571323,27.8321291],[121.1571601,27.8323206],[121.1573891,27.8325012],[121.1575159,27.8325969],[121.1576087,27.8327501],[121.1576737,27.8328951],[121.1577201,27.8331605],[121.1579057,27.8333274],[121.1581935,27.833642],[121.1583605,27.8337679],[121.1584657,27.8339047],[121.1586111,27.8340278],[121.1587658,27.8340907],[121.1588951,27.8341541],[121.1591618,27.8342849],[121.1593382,27.8343041],[121.1595547,27.8344272],[121.1597775,27.8344163],[121.1600219,27.8343561],[121.1601363,27.8344901],[121.16015927144828,27.83452]]]}},{"type":"Feature","id":"way/967108301","properties":{"highway":"residential","id":"way/967108301"},"geometry":{"type":"MultiLineString","coordinates":[[[121.1615162,27.8310265],[121.1613831,27.8312837],[121.1610552,27.8314834],[121.1606252,27.8315053],[121.1605107,27.8316093],[121.1603343,27.8316503],[121.1601116,27.8316257],[121.1598981,27.8317242],[121.1596847,27.831768],[121.1594588,27.8317297],[121.1591742,27.8317324],[121.1586266,27.8316366],[121.1582584,27.8317269],[121.1579924,27.8317926],[121.1575933,27.8317898],[121.1573829,27.8318254],[121.1571385,27.8318856],[121.1570769,27.8318637]]]}},{"type":"Feature","id":"way/967108302","properties":{"highway":"unclassified","id":"way/967108302"},"geometry":{"type":"MultiLineString","coordinates":[[[121.1646718,27.8325149],[121.16491,27.8329499],[121.1652441,27.8332426],[121.1652874,27.8333794],[121.1652008,27.8334751],[121.1648358,27.83359],[121.1642263,27.8335873],[121.1637901,27.8336831],[121.163589,27.8338554],[121.1635921,27.8339895],[121.1639138,27.8342029],[121.1644707,27.8343314],[121.16483951777778,27.83452]]]}},{"type":"Feature","id":"way/967108303","properties":{"highway":"unclassified","id":"way/967108303"},"geometry":{"type":"MultiLineString","coordinates":[[[121.1625711,27.8312331],[121.1628743,27.8312317],[121.1635859,27.8314889],[121.1637653,27.8315381],[121.1641304,27.8318829],[121.1643408,27.8321838],[121.1646006,27.8324902],[121.1646718,27.8325149],[121.1647491,27.8323015],[121.1651513,27.8322385],[121.1653493,27.8321318]]]}},{"type":"Feature","id":"way/967108304","properties":{"highway":"residential","id":"way/967108304"},"geometry":{"type":"MultiLineString","coordinates":[[[121.1635176,27.8307027],[121.163425,27.8307912],[121.163128,27.8308405],[121.1628264,27.8309062],[121.1626871,27.8309636],[121.1626098,27.8310662],[121.1625711,27.8312331],[121.1619524,27.8311113],[121.1615162,27.8310265],[121.1611325,27.8309198],[121.1608479,27.8308761],[121.160498,27.8308236]]]}},{"type":"Feature","id":"way/978147400","properties":{"highway":"residential","source":"maxar","id":"way/978147400"},"geometry":{"type":"MultiLineString","coordinates":[[[121.1588951,27.8341541],[121.158761,27.8344787],[121.158761,27.83452]]]}},{"type":"Feature","id":"way/978147401","properties":{"highway":"residential","source":"maxar","id":"way/978147401"},"geometry":{"type":"MultiLineString","coordinates":[[[121.1571354,27.8338809],[121.1574305,27.8341039],[121.15758212536144,27.83452]]]}},{"type":"Feature","id":"way/978147402","properties":{"highway":"residential","source":"maxar","id":"way/978147402"},"geometry":{"type":"MultiLineString","coordinates":[[[121.1568189,27.8333733],[121.1567491,27.8335109],[121.1571354,27.8338809],[121.1570334,27.8341466],[121.1569798,27.8342368],[121.1569583,27.8343506],[121.1568832,27.8345025],[121.15687990289855,27.83452]]]}},{"type":"Feature","id":"way/978147403","properties":{"highway":"residential","source":"maxar","id":"way/978147403"},"geometry":{"type":"MultiLineString","coordinates":[[[121.1571323,27.8321291],[121.1574738,27.8321979],[121.158139,27.8321979],[121.1586754,27.8322263],[121.1590992,27.8321884],[121.1592976,27.832103],[121.1598662,27.8321267]]]}},{"type":"Feature","id":"way/978147404","properties":{"highway":"residential","source":"maxar","id":"way/978147404"},"geometry":{"type":"MultiLineString","coordinates":[[[121.1543942,27.8322299],[121.1542064,27.8327281],[121.154201,27.8327803],[121.1542601,27.8327945],[121.1545015,27.832785],[121.1546195,27.832766],[121.1553705,27.832785],[121.1556548,27.8327992],[121.155946,27.8329463]]]}},{"type":"Feature","id":"way/978147405","properties":{"highway":"residential","source":"maxar","id":"way/978147405"},"geometry":{"type":"MultiLineString","coordinates":[[[121.1543942,27.8322299],[121.15448,27.8319785],[121.1546302,27.8316796],[121.1546034,27.8316179]]]}},{"type":"Feature","id":"way/978147406","properties":{"highway":"residential","source":"maxar","id":"way/978147406"},"geometry":{"type":"MultiLineString","coordinates":[[[121.1567491,27.8306737],[121.1564273,27.8304175],[121.156202,27.830408],[121.1560249,27.8302657],[121.1556012,27.8301091],[121.1554885,27.8300807],[121.155408,27.8301518],[121.1553544,27.8303084],[121.1552954,27.8303843],[121.1551729,27.8306776],[121.1550272,27.8309774],[121.1549789,27.8310438],[121.1549735,27.8311007],[121.1548448,27.8313854],[121.1547482,27.8314044],[121.1546678,27.8314661],[121.1546034,27.8316179]]]}},{"type":"Feature","id":"way/978147407","properties":{"highway":"residential","source":"maxar","id":"way/978147407"},"geometry":{"type":"MultiLineString","coordinates":[[[121.1567491,27.8306737],[121.1569637,27.8307686],[121.1572212,27.830854]]]}},{"type":"Feature","id":"way/978147408","properties":{"highway":"residential","source":"maxar","id":"way/978147408"},"geometry":{"type":"MultiLineString","coordinates":[[[121.1539221,27.8297723],[121.1537343,27.8299953],[121.1535198,27.8303037],[121.1534565,27.8306525]]]}},{"type":"Feature","id":"way/978147409","properties":{"highway":"residential","source":"maxar","id":"way/978147409"},"geometry":{"type":"MultiLineString","coordinates":[[[121.1539221,27.8297723],[121.1537183,27.8296062],[121.1537826,27.8294592],[121.1542815,27.8289325],[121.1543942,27.8288092],[121.1544371,27.8287997],[121.1546624,27.8288282],[121.1547053,27.8288661],[121.1549735,27.8289895],[121.1551827,27.8290606]]]}},{"type":"Feature","id":"way/978147410","properties":{"highway":"residential","source":"maxar","id":"way/978147410"},"geometry":{"type":"MultiLineString","coordinates":[[[121.1584555,27.8306564],[121.1581497,27.8306659],[121.1579298,27.830609],[121.1576884,27.8304145],[121.1575811,27.8302722],[121.1573612,27.830054],[121.1572212,27.8299763],[121.1562824,27.8295446],[121.1561644,27.8295256],[121.1559069,27.829573],[121.1556226,27.8295683],[121.155349,27.8294924],[121.1542815,27.8289325],[121.153611,27.8285577],[121.1532837,27.828311],[121.1532355,27.8282588],[121.153214,27.8281924],[121.1531764,27.8278318],[121.1530906,27.8275424],[121.1528653,27.827291],[121.1527044,27.8271771],[121.1526185,27.8271676]]]}},{"type":"Feature","id":"way/1484029116","properties":{"highway":"residential","id":"way/1484029116"},"geometry":{"type":"MultiLineString","coordinates":[[[121.1627149,27.8280757],[121.1629232,27.8281373],[121.1632343,27.8281411],[121.1644223,27.8285805],[121.1650704,27.8286951],[121.1653857,27.8289281],[121.1656843,27.8288941],[121.1662455,27.8290886],[121.1664917,27.8291345],[121.166604,27.8293484],[121.1668762,27.8293981],[121.1669556,27.8294407]]]}},{"type":"Feature","id":"way/1484029117","properties":{"highway":"residential","id":"way/1484029117"},"geometry":{"type":"MultiLineString","coordinates":[[[121.1584555,27.8306564],[121.1589604,27.8305559],[121.1593891,27.830536],[121.1597915,27.8306857],[121.1601451,27.8308021],[121.160498,27.8308236]]]}},{"type":"Feature","id":"way/1484029118","properties":{"highway":"residential","id":"way/1484029118"},"geometry":{"type":"MultiLineString","coordinates":[[[121.1598662,27.8321267],[121.1598981,27.8317242]]]}},{"type":"Feature","id":"way/1484029124","properties":{"highway":"unclassified","id":"way/1484029124"},"geometry":{"type":"MultiLineString","coordinates":[[[121.1613201,27.8305743],[121.1610968,27.8305083],[121.1609026,27.830451],[121.1604882,27.830159],[121.1602831,27.8300387]]]}},{"type":"Feature","id":"way/1546274170","properties":{"highway":"residential","id":"way/1546274170"},"geometry":{"type":"MultiLineString","coordinates":[[[121.155982,27.8258408],[121.1560491,27.8262559],[121.1560303,27.826448],[121.1560893,27.8266425],[121.1561939,27.8268797]]]}},{"type":"Feature","id":"way/1546274171","properties":{"highway":"residential","id":"way/1546274171"},"geometry":{"type":"MultiLineString","coordinates":[[[121.1561349,27.8243179],[121.1561751,27.8245622],[121.1560893,27.8251647],[121.1560035,27.8255348],[121.155982,27.8258408],[121.1557326,27.8260353],[121.1554268,27.8261302],[121.1550862,27.8262179],[121.1548072,27.8262227],[121.154547,27.8262037],[121.1542583,27.8261302]]]}},{"type":"Feature","id":"way/1546274172","properties":{"highway":"service","id":"way/1546274172"},"geometry":{"type":"MultiLineString","coordinates":[[[121.1670666,27.8200714],[121.16715,27.82001866755905]]]}}]}
