{"type":"FeatureCollection","features":[{"type":"Feature","id":"way/704062703","properties":{"natural":"water","water":"lake","id":"way/704062703"},"geometry":{"type":"MultiPolygon","coordinates":[[[[121.1628059,27.8220422],[121.1633054,27.8217607],[121.163491,27.821749],[121.1635661,27.821878],[121.1636899,27.8220695],[121.1638269,27.8222298],[121.1639816,27.8223471],[121.1641054,27.8224878],[121.1641009,27.8225504],[121.163986,27.8225973],[121.1639021,27.8225855],[121.1638579,27.8225191],[121.163796,27.8225464],[121.1637076,27.8225855],[121.1636236,27.8225191],[121.163544,27.8224214],[121.1634203,27.8223705],[121.1633054,27.8223432],[121.1632479,27.8222806],[121.1631595,27.8222103],[121.1630092,27.8221477],[121.1628943,27.8221125],[121.1628059,27.8220422]]]]}},{"type":"Feature","id":"way/704062705","properties":{"natural":"water","water":"pond","id":"way/704062705"},"geometry":{"type":"MultiPolygon","coordinates":[[[[121.163237,27.828425],[121.1633245,27.8282238],[121.1633595,27.8281877],[121.1636978,27.828327],[121.163966,27.8284044],[121.1638786,27.8285694],[121.1635053,27.8285797],[121.1632837,27.8285488],[121.1633128,27.8284817],[121.163237,27.828425]]]]}},{"type":"Feature","id":"way/704062706","properties":{"natural":"water","water":"lake","id":"way/704062706"},"geometry":{"type":"MultiPolygon","coordinates":[[[[121.1618084,27.8321468],[121.1619556,27.8316215],[121.162179,27.831644],[121.16257,27.831837],[121.1627223,27.8319448],[121.1627477,27.8320346],[121.1627273,27.8321648],[121.1626055,27.8322905],[121.1624786,27.8323579],[121.162311,27.8324342],[121.1622755,27.8324746],[121.1618744,27.8323399],[121.1618084,27.8321468]]]]}},{"type":"Feature","id":"way/836480418","properties":{"waterway":"canal","id":"way/836480418"},"geometry":{"type":"MultiLineString","coordinates":[[[121.1485913,27.8267696],[121.1480109,27.8267446],[121.147516,27.8254584],[121.1472116,27.8246007],[121.1468789,27.8244568],[121.14685,27.82445040754967]]]}}]}
